ONEWEB-0650             
1 55813U 23029T   24056.67733075 -.00000015  00000+0 -69205-4 0  9996
2 55813  87.9152 112.6871 0001799  87.4641 272.6698 13.19725576 48466
ONEWEB-0652             
1 55814U 23029U   24056.54559919  .00000261  00000+0  67005-3 0  9992
2 55814  87.8915  97.4282 0002171 103.1357 257.0015 13.14503549 48665
ONEWEB-0653             
1 55815U 23029V   24056.60585805 -.00000162  00000+0 -47131-3 0  9993
2 55815  87.8916  97.3932 0002326  99.3220 260.8172 13.14503416 48709
ONEWEB-0654             
1 55816U 23029W   24056.60110134 -.00000189  00000+0 -54322-3 0  9992
2 55816  87.8916  97.4074 0002285 109.9942 250.1434 13.14504012 48729
ONEWEB-0656             
1 55817U 23029X   24056.78858591  .00000121  00000+0  26640-3 0  9994
2 55817  87.9129  82.0660 0001687 115.3847 244.7462 13.20771514 50631
ONEWEB-0657             
1 55818U 23029Y   24056.59677322 -.00000024  00000+0 -92854-4 0  9990
2 55818  87.9151 112.7085 0001265 124.1512 235.9741 13.19725328 47771
ONEWEB-0658             
1 55819U 23029Z   24056.59204247  .00000020  00000+0  17268-4 0  9993
2 55819  87.9151 112.6458 0001862  78.9677 281.1665 13.19724498 47782
ONEWEB-0660             
1 55820U 23029AA  24056.57890448  .00000039  00000+0  69748-4 0  9997
2 55820  87.8913  97.3878 0002395  86.6315 273.5088 13.14503323 48705
